CIC_OEM_VERS = 2.0
CREATION_DATE = 2024-12-07T13:42:38.697521
ORIGINATOR = ISAE-SUPAERO


META_START
OBJECT_NAME = PLEIADES1B
OBJECT_ID = PLEIADES1B
CENTER_NAME = Earth
REF_FRAME = EME2000
TIME_SYSTEM = UTC
START_TIME = 2024-12-07T04:07:27.977
USEABLE_START_TIME = 2024-12-07T04:07:27.977
USEABLE_STOP_TIME = 2024-12-07T23:59:27.977
STOP_TIME = 2024-12-07T23:59:27.977
INTERPOLATION = lagrange
INTERPOLATION_DEGREE = 5
META_STOP



60651 14847.977 4145.174 5734.5982 14.65328 0.8559709600000001 -0.63892417 7.4290662
60651 14907.977 4188.0943 5684.6634 460.06545 0.5742232 -1.0250048 7.412970400000001
60651 14967.977 4214.0343 5611.6808 903.60708 0.29015179999999996 -1.4069245000000001 7.366739300000001
60651 15027.977 4222.8893 5515.947 1343.4752 0.004919215 -1.7831209 7.2905646
60651 15087.977 4214.6247 5397.8515 1777.8822 -0.28030795000000003 -2.1520562 7.184763200000001
60651 15147.977 4189.2758 5257.875599999999 2205.063 -0.56436418 -2.5122244 7.0497752
60651 15207.977 4146.9476 5096.589400000001 2623.2827 -0.8460902 -2.8621574 6.8861618
60651 15267.977 4087.8145 4914.6499 3030.8433999999997 -1.124338 -3.2004316 6.6946016
60651 15327.977 4012.1192 4712.7982 3426.0917000000004 -1.3979755 -3.5256734 6.4758877
60651 15387.977 3920.1719 4491.8561 3807.4249 -1.6658914 -3.8365647 6.230923700000001
60651 15447.977 3812.3485 4252.7227 4173.2977 -1.9269994 -4.1318485 5.9607193
60651 15507.977 3689.0893 3996.3703 4522.2285 -2.1802429 -4.4103332 5.666385900000001
60651 15567.977 3550.8971 3723.8411 4852.8055 -2.4245989 -4.6708982 5.3491315
60651 15627.977 3398.3349 3436.2419 5163.6918 -2.6590827 -4.9124976 5.0102552
60651 15687.977 3232.0235000000002 3134.7401 5453.6313 -2.8827516 -5.1341643999999995 4.6511414
60651 15747.977 3052.639 2820.5586000000003 5721.4533 -3.0947085000000003 -5.3350142 4.2732533
60651 15807.977 2860.9097 2494.9708 5966.076900000001 -3.2941051000000003 -5.5142476 3.8781263
60651 15867.977 2657.6135 2159.2955 6186.5156 -3.4801449 -5.671153 3.4673617
60651 15927.977 2443.5742999999998 1814.8915 6381.880700000001 -3.6520858 -5.8051085 3.04262
60651 15987.977 2219.659 1463.1521 6551.3847000000005 -3.8092424 -5.915584 2.6056146
60651 16047.977 1986.7735 1105.4998 6694.344400000001 -3.9509886 -6.002142200000001 2.1581055
60651 16107.977 1745.8599 743.38033 6810.1833 -4.0767592 -6.0644409 1.7018923
60651 16167.977 1497.892 378.25711 6898.434 -4.1860523 -6.1022332 1.238808
60651 16227.977 1243.8718999999999 11.605528 6958.74 -4.2784311 -6.1153693 0.77071181
60651 16287.977 984.82599 -355.09297 6990.8568 -4.3535253 -6.1037964 0.29948223
60651 16347.977 721.8006700000001 -720.35669 6994.653 -4.4110327 -6.0675589 -0.17299015
60651 16407.977 455.85851 -1082.7095 6970.111 -4.4507203 -6.006798 -0.64480971
60651 16467.977 188.07394 -1440.6867 6917.3268 -4.4724246999999995 -5.9217515 -1.1140828
60651 16527.977 -80.4709 -1792.8406000000002 6836.5097000000005 -4.4760534 -5.8127523000000005 -1.5789244000000002
60651 16587.977 -348.69046000000003 -2137.7464 6727.981900000001 -4.4615845 -5.680228100000001 -2.0374653
60651 16647.977 -615.50003 -2474.0078 6592.1769 -4.429067600000001 -5.5246994 -2.4878586
60651 16707.977 -879.82 -2800.2624 6429.6382 -4.3786239 -5.3467785 -2.9282869000000002
60651 16767.977 -1140.5801999999999 -3115.1874 6241.017400000001 -4.3104458999999995 -5.1471675999999995 -3.3569690000000003
60651 16827.977 -1396.724 -3417.5045 6027.071599999999 -4.2247969 -4.9266564 -3.7721675
60651 16887.977 -1647.213 -3705.9856 5788.6607 -4.1220108 -4.6861199 -4.1721953
60651 16947.977 -1891.0306 -3979.4574 5526.7442 -4.002491 -4.4265149 -4.5554227
60651 17007.977 -2127.1867 -4236.8067 5242.3774 -3.8667086 -4.1488771 -4.9202843000000005
60651 17067.977 -2354.7212999999997 -4476.9846 4936.7076 -3.7152013000000004 -3.8543168000000003 -5.2652849
60651 17127.977 -2572.7093 -4699.0114 4610.9695 -3.5485722 -3.5440169999999998 -5.589005
60651 17187.977 -2780.2608999999998 -4901.9767 4266.4785999999995 -3.3674879 -3.2192271000000003 -5.8901145
60651 17247.977 -2976.5327 -5085.0543 3904.6328 -3.1726728 -2.8812572 -6.1673615
60651 17307.977 -3160.723 -5247.492 3526.8964 -2.9649129 -2.5314780000000003 -6.4195986000000005
60651 17367.977 -3332.0802000000003 -5388.624 3134.8024 -2.7450479999999997 -2.1713109 -6.645775400000001
60651 17427.977 -3489.9045 -5507.870900000001 2729.9435 -2.5139706 -1.8022240999999999 -6.844948400000001
60651 17487.977 -3633.5512000000003 -5604.7426 2313.9654 -2.2726215 -1.4257256 -7.0162852
60651 17547.977 -3762.4332999999997 -5678.8405 1888.5603999999998 -2.0219863 -1.0433568 -7.1590691
60651 17607.977 -3876.0243 -5729.8593 1455.4602 -1.7630908 -0.65668544 -7.2727026
60651 17667.977 -3973.8602 -5757.588400000001 1016.4286999999999 -1.4969965 -0.26729848 -7.3567099
60651 17727.977 -4055.5418 -5761.9128 573.2546500000001 -1.224796 0.12320481 -7.410739700000001
60651 17787.977 -4120.736 -5742.8135999999995 127.74409 -0.94760791 0.5132199000000001 -7.4345664
60651 17847.977 -4169.1777 -5700.3683 -318.28720000000004 -0.66657204 0.9011440000000001 -7.4280914000000005
60651 17907.977 -4200.6708 -5634.750099999999 -763.0213299999999 -0.38284427 1.2853831 -7.391343200000001
60651 17967.977 -4215.0886 -5546.2276 -1204.646 -0.097591358 1.6643587 -7.3244781
60651 18027.977 -4212.3747 -5435.1634 -1641.3618999999999 0.18801433 2.0365155 -7.2277786
60651 18087.977 -4192.5432 -5302.0126 -2071.3908 0.47280004000000003 2.4003274 -7.1016526
60651 18147.977 -4155.6785 -5147.320900000001 -2492.9822000000004 0.75559791 2.754305 -6.9466312
60651 18207.977 -4101.9344 -4971.7217 -2904.4216 1.0352501 3.0970022 -6.7633657000000005
60651 18267.977 -4031.5342 -4775.934200000001 -3304.0365 1.3106138 3.4270218 -6.552624300000001
60651 18327.977 -3944.7691 -4560.759599999999 -3690.2046 1.5805661 3.7430224 -6.3152882
60651 18387.977 -3842.0103 -4327.092900000001 -4061.3741 1.8439904 4.0436952999999995 -6.0523382
60651 18447.977 -3722.9892999999997 -4075.1126000000004 -4415.3012 2.1001741000000003 4.3285831 -5.7659369
60651 18507.977 -3589.4272 -3807.213 -4751.945900000001 2.3475964 4.5953406999999995 -5.4551265
60651 18567.977 -3441.3893 -3523.9599 -5069.372 2.5853179 4.8432224 -5.1221776
60651 18627.977 -3279.4007 -3226.4210000000003 -5366.193700000001 2.8124621000000003 5.0713712 -4.7685517
60651 18687.977 -3104.1237 -2915.8082000000004 -5641.2137 3.0281173 5.2788789 -4.3957026
60651 18747.977 -2916.2737 -2593.3849 -5893.3241 3.2314209000000003 5.4649235 -4.0051581
60651 18807.977 -2716.6164 -2260.4614 -6121.510700000001 3.4215621 5.6287712 -3.5985136000000004
60651 18867.977 -2505.9646000000002 -1918.3892 -6324.8568 3.5977849 5.7697792 -3.1774251
60651 18927.977 -2285.1746000000003 -1568.5557 -6502.5470000000005 3.7593906 5.8873968 -2.7436021999999998
60651 18987.977 -2055.1429 -1212.3786 -6653.8695 3.9057401 5.981167999999999 -2.2988019
60651 19047.977 -1816.8025 -851.29979 -6778.219599999999 4.036256 6.0507319 -1.844821
60651 19107.977 -1571.1192 -486.78025 -6875.101000000001 4.1504244 6.0958239 -1.3834894
60651 19167.977 -1319.0876 -120.29377000000001 -6944.1284000000005 4.2477966 6.1162766 -0.9166629000000001
60651 19227.977 -1061.7272 246.67867 -6985.0280999999995 4.327990600000001 6.112019 -0.44621642000000006
60651 19287.977 -800.07861 612.65477 -6997.639700000001 4.3906920000000005 6.083077500000001 0.025963194000000002
60651 19347.977 -535.199 976.1566899999999 -6981.9157000000005 4.4356552 6.0295745 0.49798388
60651 19407.977 -268.15832 1335.7168000000001 -6937.9226 4.4627039 5.9517283 0.96795516
60651 19467.977 -0.034986948 1689.8834 -6865.8398 4.471732 5.849852 1.4339948
60651 19527.977 268.08834 2037.2265 -6765.9592 4.4627035 5.724352700000001 1.8942356
60651 19587.977 535.1289499999999 2376.3432000000003 -6638.6844 4.4356533 5.5757300999999995 2.3468318
60651 19647.977 800.00836 2705.8634 -6484.528700000001 4.3906868 5.404575 2.7899664
60651 19707.977 1061.6565 3024.4551 -6304.1133 4.3279800999999996 5.2115678 3.2218577
60651 19767.977 1319.0161 3330.8298 -6098.165400000001 4.2477797 4.997476 3.6407662000000003
60651 19827.977 1571.0465 3623.7475 -5867.5149 4.1504013 4.7631518999999996 4.0450018
60651 19887.977 1816.7283 3902.022 -5613.0914 4.0362296 4.5095293000000005 4.432930000000001
60651 19947.977 2055.0672 4164.5253 -5335.9209 3.9057167 4.2376206000000005 4.8029792
60651 20007.977 2285.0978 4410.192400000001 -5037.1215999999995 3.7593809 3.9485126 5.1536462
60651 20067.977 2505.888 4638.025900000001 -4717.8996 3.5978048 3.6433636000000003 5.4835031
60651 20127.977 2716.5424 4847.099700000001 -4379.544400000001 3.4216336000000003 3.3233981 5.7912032
60651 20187.977 2916.2062 5036.563099999999 -4023.4236 3.2315726000000002 2.9899032 6.0754866000000005
60651 20247.977 3104.0686 5205.6443 -3650.9778 3.0283853 2.6442237 6.335186
60651 20307.977 3279.3662000000004 5353.6541 -3263.7144 2.8128899 2.2877566000000003 6.5692324
60651 20367.977 3441.3866000000003 5479.988200000001 -2863.2023 2.5859565 1.9219457 6.77666
60651 20427.977 3589.4706 5584.130400000001 -2451.0647999999997 2.3485037 1.5482760000000002 6.9566112
60651 20487.977 3723.0159 5665.6546 -2028.9735 2.1014947999999998 1.1682669 7.1083402
60651 20547.977 3841.4789 5724.2266 -1598.6411 1.8459337 0.78346636 7.2312174
60651 20607.977 3944.3777000000005 5759.6061 -1161.8147 1.5828609 0.39544355999999997 7.3247321
60651 20667.977 4031.2934 5771.647 -720.26831 1.3133491 0.0057826976 7.3884951
60651 20727.977 4101.8729 5760.2993 -275.79571999999996 1.0384985999999998 -0.38392385 7.4222403
60651 20787.977 4155.8288 5725.6071 169.79707000000002 0.75943042 -0.77208629 7.425828000000001
60651 20847.977 4192.943 5667.7115 614.69983 0.47728837 -1.1571132 7.3992419
60651 20907.977 4213.0651 5586.8477 1057.1048 0.19322382999999999 -1.5374341999999999 7.3425931
60651 20967.977 4216.1146 5483.344599999999 1495.2145 -0.09160195400000001 -1.9114957 7.2561177
60651 21027.977 4202.080900000001 5357.6239000000005 1927.2495000000001 -0.37602559 -2.2777713 7.1401753
